STARLINK-37956          
1 69711U 26147H   26201.91668981 -.02444088  00000+0 -22966-1 0  9990
2 69711  97.2839 238.6330 0001662  81.8223 197.9535 15.70275901  4660
STARLINK-38043          
1 69712U 26147J   26201.86025467  .00227057  00000+0  11466-2 0  9996
2 69712  97.2845 238.5897 0001261 350.2188   9.9055 15.80985655  4757
STARLINK-38020          
1 69713U 26147K   26201.91668981 -.02467015  00000+0 -22686-1 0  9996
2 69713  97.2840 238.6376 0001592  83.9525 208.0737 15.70822428  4664
STARLINK-38059          
1 69714U 26147L   26201.91668981 -.02354002  00000+0 -22399-1 0  9999
2 69714  97.2842 238.6347 0001600  89.6400 196.2720 15.70435954  4664
STARLINK-38061          
1 69715U 26147M   26200.52867195  .00166763  00000+0  85280-3 0  9995
2 69715  97.2822 237.1863 0000273  37.1076 323.0211 15.80867548  4543
STARLINK-38060          
1 69716U 26147N   26201.85724293  .00225743  00000+0  11476-2 0  9993
2 69716  97.2840 238.5941 0003518 135.3695 224.7857 15.80838171  4755
STARLINK-38040          
1 69717U 26147P   26201.91668981 -.02596929  00000+0 -20644-1 0  9999
2 69717  97.2842 238.6531 0001509  74.0077 255.4125 15.74402530  4753
STARLINK-37989          
1 69718U 26147Q   26201.91668981 -.00752717  00000+0 -67755-2 0  9992
2 69718  97.2845 238.6480 0001439  76.5309 236.8327 15.70324214  4752
STARLINK-38039          
1 69719U 26147R   26201.91668981 -.00056908  00000+0 -29814-3 0  9997
2 69719  97.2839 238.6638 0001378  91.0151 260.0137 15.80827247  4753
STARLINK-38003          
1 69720U 26147S   26201.85423842  .00065070  00000+0  33720-3 0  9996
2 69720  97.2840 238.5977 0000955  83.2374 276.9003 15.80863491  4751
STARLINK-38014          
1 69721U 26147T   26201.34707833  .00136106  00000+0  69835-3 0  9991
2 69721  97.2843 238.0633 0001251 102.9167 257.2241 15.80876259  4671
STARLINK-37915          
1 69722U 26147U   26201.85274114  .00348626  00000+0  17363-2 0  9999
2 69722  97.2836 238.5995 0001116 302.7588  57.3573 15.80976219  4750
STARLINK-38007          
1 69723U 26147V   26201.91668981 -.00018439  00000+0 -95744-4 0  9995
2 69723  97.2841 238.6621 0001170  89.5473 260.7008 15.80811899  4752
STARLINK-38008          
1 69724U 26147W   26201.85123063  .00230106  00000+0  11666-2 0  9990
2 69724  97.2867 238.6020 0000342 250.5996 109.5235 15.80891873  4756
STARLINK-38021          
1 69725U 26147X   26201.85053892  .00346622  00000+0  17280-2 0  9992
2 69725  97.2826 238.6028 0004152 354.3638   5.7583 15.80955913  4758
STARLINK-38015          
1 69726U 26147Y   26201.91668981 -.00166493  00000+0 -11342-2 0  9992
2 69726  97.2853 238.6481 0001209  86.5613 225.2083 15.75251094  4756
STARLINK-38010          
1 69727U 26147Z   26201.89275240  .00189521  00000+0  12436-2 0  9992
2 69727  97.2832 238.5448 0001238  89.6281 270.5127 15.75188680  4755
SXM-11                  
1 69728U 26148A   26201.73705367  .00000010  00000+0  00000+0 0  9991
2 69728   0.0971 264.8802 0002074 187.6543 350.7757  1.00270825   377
HAIYANG-2E              
1 69737U 26149A   26201.96212678 -.00000038  00000+0  57480-5 0  9996
2 69737  99.3440 208.8083 0001578  83.7504 276.3828 13.79299310  2619
CZ-4B R/B               
1 69738U 26149B   26201.92858637  .00000060  00000+0  37080-4 0  9991
2 69738  99.3219 210.3570 0197898 313.5408  44.9479 14.30068995  2950
STARLINK-38033          
1 69739U 26150A   26201.71838234  .00213105  00000+0  10798-2 0  9993
2 69739  97.2848  40.3998 0003159  49.5378 310.6166 15.80944298  4198
STARLINK-38076          
1 69740U 26150B   26201.82033102  .00232542  00000+0  15146-2 0  9996
2 69740  97.2842  40.4120 0001363  72.6056 287.5358 15.75239800  4204
STARLINK-38074          
1 69741U 26150C   26201.91668981 -.00054029  00000+0 -36352-3 0  9993
2 69741  97.2854  40.5915 0001030  90.5074 275.6761 15.75199002  4217
STARLINK-38041          
1 69742U 26150D   26201.91668981 -.00062166  00000+0 -41874-3 0  9990
2 69742  97.2862  40.5695 0001452  98.4855 213.7058 15.75201536  4212
STARLINK-38087          
1 69743U 26150E   26201.91668981 -.00070620  00000+0 -47624-3 0  9994
2 69743  97.2857  40.5855 0001194  96.3850 257.7983 15.75203783  4211
STARLINK-38078          
1 69744U 26150F   26201.84014239  .00374946  00000+0  18541-2 0  9999
2 69744  97.2850  40.5397 0002443  63.4145 296.7373 15.81065657  4215
STARLINK-38047          
1 69745U 26150G   26201.91668981 -.00072825  00000+0 -49120-3 0  9998
2 69745  97.2863  40.5727 0000617 103.3161 218.8737 15.75207612  4211
STARLINK-38046          
1 69746U 26150H   26201.91668981 -.00075637  00000+0 -51028-3 0  9993
2 69746  97.2853  40.6132 0001262 100.5375 315.6397 15.75210304  4215
STARLINK-38067          
1 69747U 26150J   26201.49104514  .00116652  00000+0  77113-3 0  9998
2 69747  97.2849  40.0952 0000960  73.0757 287.0614 15.75225969  4157
STARLINK-37988          
1 69748U 26150K   26201.48928127  .00199478  00000+0  13041-2 0  9998
2 69748  97.2846  40.0974 0000383  22.7417 337.3865 15.75246075  4150
