OBJECT_NAME,OBJECT_ID,EPOCH,MEAN_MOTION,ECCENTRICITY,INCLINATION,RA_OF_ASC_NODE,ARG_OF_PERICENTER,MEAN_ANOMALY,EPHEMERIS_TYPE,CLASSIFICATION_TYPE,NORAD_CAT_ID,ELEMENT_SET_NO,REV_AT_EPOCH,BSTAR,MEAN_MOTION_DOT,MEAN_MOTION_DDOT
STARLINK-37956,2026-147H,2026-07-20T22:00:01.999584,15.70275901,.00016626,97.2839,238.6330,81.8223,197.9535,0,U,69711,999,466,-.22965693E-1,-.2444088E-1,0
STARLINK-38043,2026-147J,2026-07-20T20:38:46.003488,15.80985655,.00012617,97.2845,238.5897,350.2188,9.9055,0,U,69712,999,475,.11466368E-2,.227057E-2,0
STARLINK-38020,2026-147K,2026-07-20T22:00:01.999584,15.70822428,.00015927,97.2840,238.6376,83.9525,208.0737,0,U,69713,999,466,-.2268599E-1,-.2467015E-1,0
STARLINK-38059,2026-147L,2026-07-20T22:00:01.999584,15.70435954,.00016002,97.2842,238.6347,89.6400,196.2720,0,U,69714,999,466,-.22399473E-1,-.2354002E-1,0
STARLINK-38061,2026-147M,2026-07-19T12:41:17.256480,15.80867548,.0000273,97.2822,237.1863,37.1076,323.0211,0,U,69715,999,454,.85280438E-3,.166763E-2,0
STARLINK-38060,2026-147N,2026-07-20T20:34:25.789152,15.80838171,.00035189,97.2840,238.5941,135.3695,224.7857,0,U,69716,999,475,.11476497E-2,.225743E-2,0
STARLINK-38040,2026-147P,2026-07-20T22:00:01.999584,15.74402530,.00015098,97.2842,238.6531,74.0077,255.4125,0,U,69717,999,475,-.20643577E-1,-.2596929E-1,0
STARLINK-37989,2026-147Q,2026-07-20T22:00:01.999584,15.70324214,.00014391,97.2845,238.6480,76.5309,236.8327,0,U,69718,999,475,-.67754932E-2,-.752717E-2,0
STARLINK-38039,2026-147R,2026-07-20T22:00:01.999584,15.80827247,.00013788,97.2839,238.6638,91.0151,260.0137,0,U,69719,999,475,-.29813915E-3,-.56908E-3,0
STARLINK-38003,2026-147S,2026-07-20T20:30:06.199488,15.80863491,.00009555,97.2840,238.5977,83.2374,276.9003,0,U,69720,999,475,.33719543E-3,.6507E-3,0
STARLINK-38014,2026-147T,2026-07-20T08:19:47.567712,15.80876259,.00012518,97.2843,238.0633,102.9167,257.2241,0,U,69721,999,467,.69835412E-3,.136106E-2,0
STARLINK-37915,2026-147U,2026-07-20T20:27:56.834496,15.80976219,.00011165,97.2836,238.5995,302.7588,57.3573,0,U,69722,999,475,.17362889E-2,.348626E-2,0
STARLINK-38007,2026-147V,2026-07-20T22:00:01.999584,15.80811899,.00011706,97.2841,238.6621,89.5473,260.7008,0,U,69723,999,475,-.95743782E-4,-.18439E-3,0
STARLINK-38008,2026-147W,2026-07-20T20:25:46.326432,15.80891873,.0000342,97.2867,238.6020,250.5996,109.5235,0,U,69724,999,475,.11665652E-2,.230106E-2,0
STARLINK-38021,2026-147X,2026-07-20T20:24:46.562688,15.80955913,.00041521,97.2826,238.6028,354.3638,5.7583,0,U,69725,999,475,.17280014E-2,.346622E-2,0
STARLINK-38015,2026-147Y,2026-07-20T22:00:01.999584,15.75251094,.00012091,97.2853,238.6481,86.5613,225.2083,0,U,69726,999,475,-.11342344E-2,-.166493E-2,0
STARLINK-38010,2026-147Z,2026-07-20T21:25:33.807360,15.75188680,.00012381,97.2832,238.5448,89.6281,270.5127,0,U,69727,999,475,.12435781E-2,.189521E-2,0
SXM-11,2026-148A,2026-07-20T17:41:21.437088,1.00270825,.00020744,0.0971,264.8802,187.6543,350.7757,0,U,69728,999,37,0,.1E-6,0
HAIYANG-2E,2026-149A,2026-07-20T23:05:27.753792,13.79299310,.0001578,99.3440,208.8083,83.7504,276.3828,0,U,69737,999,261,.5747981E-5,-.38E-6,0
CZ-4B R/B,2026-149B,2026-07-20T22:17:09.862368,14.30068995,.01978984,99.3219,210.3570,313.5408,44.9479,0,U,69738,999,295,.37079684E-4,.6E-6,0
STARLINK-38033,2026-150A,2026-07-20T17:14:28.234176,15.80944298,.00031599,97.2848,40.3998,49.5378,310.6166,0,U,69739,999,419,.10798348E-2,.213105E-2,0
STARLINK-38076,2026-150B,2026-07-20T19:41:16.600128,15.75239800,.00013637,97.2842,40.4120,72.6056,287.5358,0,U,69740,999,420,.15145959E-2,.232542E-2,0
STARLINK-38074,2026-150C,2026-07-20T22:00:01.999584,15.75199002,.00010308,97.2854,40.5915,90.5074,275.6761,0,U,69741,999,421,-.36352035E-3,-.54029E-3,0
STARLINK-38041,2026-150D,2026-07-20T22:00:01.999584,15.75201536,.0001452,97.2862,40.5695,98.4855,213.7058,0,U,69742,999,421,-.41873524E-3,-.62166E-3,0
STARLINK-38087,2026-150E,2026-07-20T22:00:01.999584,15.75203783,.00011942,97.2857,40.5855,96.3850,257.7983,0,U,69743,999,421,-.47623619E-3,-.7062E-3,0
STARLINK-38078,2026-150F,2026-07-20T20:09:48.302496,15.81065657,.00024436,97.2850,40.5397,63.4145,296.7373,0,U,69744,999,421,.18540684E-2,.374946E-2,0
STARLINK-38047,2026-150G,2026-07-20T22:00:01.999584,15.75207612,.00006177,97.2863,40.5727,103.3161,218.8737,0,U,69745,999,421,-.49120108E-3,-.72825E-3,0
STARLINK-38046,2026-150H,2026-07-20T22:00:01.999584,15.75210304,.00012621,97.2853,40.6132,100.5375,315.6397,0,U,69746,999,421,-.51027873E-3,-.75637E-3,0
STARLINK-38067,2026-150J,2026-07-20T11:47:06.300096,15.75225969,.00009609,97.2849,40.0952,73.0757,287.0614,0,U,69747,999,415,.77112967E-3,.116652E-2,0
STARLINK-37988,2026-150K,2026-07-20T11:44:33.901728,15.75246075,.0000383,97.2846,40.0974,22.7417,337.3865,0,U,69748,999,415,.13040691E-2,.199478E-2,0
